[{"OBJECT_NAME":"TIANMU-1 09","OBJECT_ID":"2023-101C","EPOCH":"2026-03-09T22:17:34.703232","MEAN_MOTION":15.29080822,"ECCENTRICITY":0.00049013,"INCLINATION":97.267,"RA_OF_ASC_NODE":121.1263,"ARG_OF_PERICENTER":139.4293,"MEAN_ANOMALY":220.7314,"EPHEMERIS_TYPE":0,"CLASSIFICATION_TYPE":"U","NORAD_CAT_ID":57401,"ELEMENT_SET_NO":999,"REV_AT_EPOCH":14647,"BSTAR":0.00030540035,"MEAN_MOTION_DOT":8.553e-5,"MEAN_MOTION_DDOT":0},{"OBJECT_NAME":"STARLINK-30250","OBJECT_ID":"2023-115G","EPOCH":"2026-03-09T04:37:04.931616","MEAN_MOTION":15.26761278,"ECCENTRICITY":4.786e-5,"INCLINATION":42.9981,"RA_OF_ASC_NODE":4.5339,"ARG_OF_PERICENTER":287.7071,"MEAN_ANOMALY":72.3728,"EPHEMERIS_TYPE":0,"CLASSIFICATION_TYPE":"U","NORAD_CAT_ID":57527,"ELEMENT_SET_NO":999,"REV_AT_EPOCH":14317,"BSTAR":-0.00023974414,"MEAN_MOTION_DOT":-6.688e-5,"MEAN_MOTION_DDOT":0}]
